2026-083E               
1 68757U 26083E   26116.15407359  .00201317  00000+0  74072-2 0  9997
2 68757  98.2486 262.3078 0058829  46.3962 314.2133 15.25404168  1400
2026-083F               
1 68758U 26083F   26116.92482371  .00003015  00000+0  20694-3 0  9997
2 68758  96.9523 256.2465 0010671 219.7328 140.3121 15.06600498  1481
2026-083G               
1 68759U 26083G   26116.92455590  .00003019  00000+0  20696-3 0  9997
2 68759  96.9527 256.2500 0010831 219.8991 140.1443 15.06642228  1472
DAQI-2                  
1 68760U 26084A   26116.96043631  .00000034  00000+0  17658-4 0  9992
2 68760  98.2878 191.3409 0000659 223.7007 136.4139 14.57590464  1439
2026-083H               
1 68762U 26083H   26116.92347764  .00003026  00000+0  20650-3 0  9992
2 68762  96.9522 256.2476 0011550 220.1880 139.8496 15.06810220  1487
2026-083J               
1 68763U 26083J   26116.92319400  .00002966  00000+0  20222-3 0  9996
2 68763  96.9527 256.2512 0011751 220.1937 139.8424 15.06854333  1484
2026-083K               
1 68764U 26083K   26116.92283927  .00003038  00000+0  20675-3 0  9994
2 68764  96.9525 256.2506 0011130 216.1408 143.9070 15.06909794  1480
NAVSTAR 86 (USA 585)    
1 68791U 26087A   26112.34150053  .00002417  00000+0  19778-2 0  9994
2 68791  54.9968 210.8716 5942075 270.2176  26.1146  4.03281331    56
FSI-SAT2                
1 68792U 26088A   26115.68414791  .00000849  00000+0  61705-4 0  9994
2 68792  97.4990 266.2992 0012809 287.5176  72.4651 15.06389719   389
KAKUSHIN RISING OBJECT B
1 68793U 26088B   26114.82029179  .00001527  00000+0  10684-3 0  9995
2 68793  97.5001 265.4583 0014328 287.2171  72.7488 15.06668645   256
KAKUSHIN RISING OBJECT C
1 68794U 26088C   26115.68335249  .00001627  00000+0  11308-3 0  9994
2 68794  97.4987 266.2982 0011167 274.3659  85.6293 15.06864662   385
ORIGAMISAT-2            
1 68795U 26088D   26113.82356135  .00001590  00000+0  10758-3 0  9993
2 68795  97.5008 264.4888 0014430 266.4157  93.5420 15.07861282   103
ARICA-2                 
1 68796U 26088E   26113.82352201  .00001593  00000+0  10752-3 0  9991
2 68796  97.4989 264.4863 0014541 264.6248  95.3321 15.07951070   103
WASEDA-SAT-ZERO-II      
1 68797U 26088F   26113.82350997  .00001596  00000+0  10767-3 0  9991
2 68797  97.5012 264.4822 0014814 262.4592  97.4954 15.07975758   102
MAGNARO-II PISCIS       
1 68798U 26088G   26113.82334568  .00001591  00000+0  10611-3 0  9991
2 68798  97.4999 264.4888 0017891 266.9056  93.0125 15.08353756   101
KAKUSHIN RISING OBJECT H
1 68799U 26088H   26113.82333913  .00001590  00000+0  10605-3 0  9997
2 68799  97.4986 264.4881 0017899 267.0829  92.8351 15.08368885   106
