[{"OBJECT_NAME":"2026-083E","OBJECT_ID":"2026-083E","EPOCH":"2026-04-26T03:41:51.958176","MEAN_MOTION":15.25404168,"ECCENTRICITY":0.00588291,"INCLINATION":98.2486,"RA_OF_ASC_NODE":262.3078,"ARG_OF_PERICENTER":46.3962,"MEAN_ANOMALY":314.2133,"EPHEMERIS_TYPE":0,"CLASSIFICATION_TYPE":"U","NORAD_CAT_ID":68757,"ELEMENT_SET_NO":999,"REV_AT_EPOCH":140,"BSTAR":0.007407247,"MEAN_MOTION_DOT":0.00201317,"MEAN_MOTION_DDOT":0},{"OBJECT_NAME":"2026-083F","OBJECT_ID":"2026-083F","EPOCH":"2026-04-26T22:11:44.768544","MEAN_MOTION":15.06600498,"ECCENTRICITY":0.00106713,"INCLINATION":96.9523,"RA_OF_ASC_NODE":256.2465,"ARG_OF_PERICENTER":219.7328,"MEAN_ANOMALY":140.3121,"EPHEMERIS_TYPE":0,"CLASSIFICATION_TYPE":"U","NORAD_CAT_ID":68758,"ELEMENT_SET_NO":999,"REV_AT_EPOCH":148,"BSTAR":0.00020693548,"MEAN_MOTION_DOT":3.015e-5,"MEAN_MOTION_DDOT":0},{"OBJECT_NAME":"2026-083G","OBJECT_ID":"2026-083G","EPOCH":"2026-04-26T22:11:21.629760","MEAN_MOTION":15.06642228,"ECCENTRICITY":0.00108311,"INCLINATION":96.9527,"RA_OF_ASC_NODE":256.25,"ARG_OF_PERICENTER":219.8991,"MEAN_ANOMALY":140.1443,"EPHEMERIS_TYPE":0,"CLASSIFICATION_TYPE":"U","NORAD_CAT_ID":68759,"ELEMENT_SET_NO":999,"REV_AT_EPOCH":147,"BSTAR":0.00020695818,"MEAN_MOTION_DOT":3.019e-5,"MEAN_MOTION_DDOT":0},{"OBJECT_NAME":"DAQI-2","OBJECT_ID":"2026-084A","EPOCH":"2026-04-26T23:03:01.697184","MEAN_MOTION":14.57590464,"ECCENTRICITY":6.59e-5,"INCLINATION":98.2878,"RA_OF_ASC_NODE":191.3409,"ARG_OF_PERICENTER":223.7007,"MEAN_ANOMALY":136.4139,"EPHEMERIS_TYPE":0,"CLASSIFICATION_TYPE":"U","NORAD_CAT_ID":68760,"ELEMENT_SET_NO":999,"REV_AT_EPOCH":143,"BSTAR":1.7657789e-5,"MEAN_MOTION_DOT":3.4e-7,"MEAN_MOTION_DDOT":0},{"OBJECT_NAME":"2026-083H","OBJECT_ID":"2026-083H","EPOCH":"2026-04-26T22:09:48.468096","MEAN_MOTION":15.0681022,"ECCENTRICITY":0.00115505,"INCLINATION":96.9522,"RA_OF_ASC_NODE":256.2476,"ARG_OF_PERICENTER":220.188,"MEAN_ANOMALY":139.8496,"EPHEMERIS_TYPE":0,"CLASSIFICATION_TYPE":"U","NORAD_CAT_ID":68762,"ELEMENT_SET_NO":999,"REV_AT_EPOCH":148,"BSTAR":0.00020650487,"MEAN_MOTION_DOT":3.026e-5,"MEAN_MOTION_DDOT":0},{"OBJECT_NAME":"2026-083J","OBJECT_ID":"2026-083J","EPOCH":"2026-04-26T22:09:23.961600","MEAN_MOTION":15.06854333,"ECCENTRICITY":0.00117512,"INCLINATION":96.9527,"RA_OF_ASC_NODE":256.2512,"ARG_OF_PERICENTER":220.1937,"MEAN_ANOMALY":139.8424,"EPHEMERIS_TYPE":0,"CLASSIFICATION_TYPE":"U","NORAD_CAT_ID":68763,"ELEMENT_SET_NO":999,"REV_AT_EPOCH":148,"BSTAR":0.00020222203,"MEAN_MOTION_DOT":2.966e-5,"MEAN_MOTION_DDOT":0},{"OBJECT_NAME":"2026-083K","OBJECT_ID":"2026-083K","EPOCH":"2026-04-26T22:08:53.312928","MEAN_MOTION":15.06909794,"ECCENTRICITY":0.00111302,"INCLINATION":96.9525,"RA_OF_ASC_NODE":256.2506,"ARG_OF_PERICENTER":216.1408,"MEAN_ANOMALY":143.907,"EPHEMERIS_TYPE":0,"CLASSIFICATION_TYPE":"U","NORAD_CAT_ID":68764,"ELEMENT_SET_NO":999,"REV_AT_EPOCH":148,"BSTAR":0.00020674899,"MEAN_MOTION_DOT":3.038e-5,"MEAN_MOTION_DDOT":0},{"OBJECT_NAME":"NAVSTAR 86 (USA 585)","OBJECT_ID":"2026-087A","EPOCH":"2026-04-22T08:11:45.645792","MEAN_MOTION":4.03281331,"ECCENTRICITY":0.59420752,"INCLINATION":54.9968,"RA_OF_ASC_NODE":210.8716,"ARG_OF_PERICENTER":270.2176,"MEAN_ANOMALY":26.1146,"EPHEMERIS_TYPE":0,"CLASSIFICATION_TYPE":"U","NORAD_CAT_ID":68791,"ELEMENT_SET_NO":999,"REV_AT_EPOCH":5,"BSTAR":0.0019778413,"MEAN_MOTION_DOT":2.417e-5,"MEAN_MOTION_DDOT":0},{"OBJECT_NAME":"FSI-SAT2","OBJECT_ID":"2026-088A","EPOCH":"2026-04-25T16:25:10.379424","MEAN_MOTION":15.06389719,"ECCENTRICITY":0.0012809,"INCLINATION":97.499,"RA_OF_ASC_NODE":266.2992,"ARG_OF_PERICENTER":287.5176,"MEAN_ANOMALY":72.4651,"EPHEMERIS_TYPE":0,"CLASSIFICATION_TYPE":"U","NORAD_CAT_ID":68792,"ELEMENT_SET_NO":999,"REV_AT_EPOCH":38,"BSTAR":6.1705453e-5,"MEAN_MOTION_DOT":8.49e-6,"MEAN_MOTION_DDOT":0},{"OBJECT_NAME":"KAKUSHIN RISING OBJECT B","OBJECT_ID":"2026-088B","EPOCH":"2026-04-24T19:41:13.210656","MEAN_MOTION":15.06668645,"ECCENTRICITY":0.00143284,"INCLINATION":97.5001,"RA_OF_ASC_NODE":265.4583,"ARG_OF_PERICENTER":287.2171,"MEAN_ANOMALY":72.7488,"EPHEMERIS_TYPE":0,"CLASSIFICATION_TYPE":"U","NORAD_CAT_ID":68793,"ELEMENT_SET_NO":999,"REV_AT_EPOCH":25,"BSTAR":0.00010684024,"MEAN_MOTION_DOT":1.527e-5,"MEAN_MOTION_DDOT":0},{"OBJECT_NAME":"KAKUSHIN RISING OBJECT C","OBJECT_ID":"2026-088C","EPOCH":"2026-04-25T16:24:01.655136","MEAN_MOTION":15.06864662,"ECCENTRICITY":0.0011167,"INCLINATION":97.4987,"RA_OF_ASC_NODE":266.2982,"ARG_OF_PERICENTER":274.3659,"MEAN_ANOMALY":85.6293,"EPHEMERIS_TYPE":0,"CLASSIFICATION_TYPE":"U","NORAD_CAT_ID":68794,"ELEMENT_SET_NO":999,"REV_AT_EPOCH":38,"BSTAR":0.00011307523,"MEAN_MOTION_DOT":1.627e-5,"MEAN_MOTION_DDOT":0},{"OBJECT_NAME":"ORIGAMISAT-2","OBJECT_ID":"2026-088D","EPOCH":"2026-04-23T19:45:55.700640","MEAN_MOTION":15.07861282,"ECCENTRICITY":0.001443,"INCLINATION":97.5008,"RA_OF_ASC_NODE":264.4888,"ARG_OF_PERICENTER":266.4157,"MEAN_ANOMALY":93.542,"EPHEMERIS_TYPE":0,"CLASSIFICATION_TYPE":"U","NORAD_CAT_ID":68795,"ELEMENT_SET_NO":999,"REV_AT_EPOCH":10,"BSTAR":0.00010758,"MEAN_MOTION_DOT":1.59e-5,"MEAN_MOTION_DDOT":0},{"OBJECT_NAME":"ARICA-2","OBJECT_ID":"2026-088E","EPOCH":"2026-04-23T19:45:52.301664","MEAN_MOTION":15.0795107,"ECCENTRICITY":0.0014541,"INCLINATION":97.4989,"RA_OF_ASC_NODE":264.4863,"ARG_OF_PERICENTER":264.6248,"MEAN_ANOMALY":95.3321,"EPHEMERIS_TYPE":0,"CLASSIFICATION_TYPE":"U","NORAD_CAT_ID":68796,"ELEMENT_SET_NO":999,"REV_AT_EPOCH":10,"BSTAR":0.00010752,"MEAN_MOTION_DOT":1.593e-5,"MEAN_MOTION_DDOT":0},{"OBJECT_NAME":"WASEDA-SAT-ZERO-II","OBJECT_ID":"2026-088F","EPOCH":"2026-04-23T19:45:51.261408","MEAN_MOTION":15.07975758,"ECCENTRICITY":0.0014814,"INCLINATION":97.5012,"RA_OF_ASC_NODE":264.4822,"ARG_OF_PERICENTER":262.4592,"MEAN_ANOMALY":97.4954,"EPHEMERIS_TYPE":0,"CLASSIFICATION_TYPE":"U","NORAD_CAT_ID":68797,"ELEMENT_SET_NO":999,"REV_AT_EPOCH":10,"BSTAR":0.00010767,"MEAN_MOTION_DOT":1.596e-5,"MEAN_MOTION_DDOT":0},{"OBJECT_NAME":"MAGNARO-II PISCIS","OBJECT_ID":"2026-088G","EPOCH":"2026-04-23T19:45:37.066752","MEAN_MOTION":15.08353756,"ECCENTRICITY":0.0017891,"INCLINATION":97.4999,"RA_OF_ASC_NODE":264.4888,"ARG_OF_PERICENTER":266.9056,"MEAN_ANOMALY":93.0125,"EPHEMERIS_TYPE":0,"CLASSIFICATION_TYPE":"U","NORAD_CAT_ID":68798,"ELEMENT_SET_NO":999,"REV_AT_EPOCH":10,"BSTAR":0.00010611,"MEAN_MOTION_DOT":1.591e-5,"MEAN_MOTION_DDOT":0},{"OBJECT_NAME":"KAKUSHIN RISING OBJECT H","OBJECT_ID":"2026-088H","EPOCH":"2026-04-23T19:45:36.500832","MEAN_MOTION":15.08368885,"ECCENTRICITY":0.0017899,"INCLINATION":97.4986,"RA_OF_ASC_NODE":264.4881,"ARG_OF_PERICENTER":267.0829,"MEAN_ANOMALY":92.8351,"EPHEMERIS_TYPE":0,"CLASSIFICATION_TYPE":"U","NORAD_CAT_ID":68799,"ELEMENT_SET_NO":999,"REV_AT_EPOCH":10,"BSTAR":0.00010605,"MEAN_MOTION_DOT":1.59e-5,"MEAN_MOTION_DDOT":0}]
